#aV2011 10 11  0  0   .00000000      96 DD+AD WGS84 FIT  NGA
## 1657 172800.00000000   900.00000000 55845  .0000000000000
+   31     1  2  3  4  5  6  7  8  9 10 11 12 13 14 15 16 17
+         18 19 20 21 22 23 25 26 27 28 29 30 31 32  0  0  0
+          0  0  0  0  0  0  0  0  0  0  0  0  0  0  0  0  0
+          0  0  0  0  0  0  0  0  0  0  0  0  0  0  0  0  0
+          0  0  0  0  0  0  0  0  0  0  0  0  0  0  0  0  0
++         0  0  0  0  0  0  0  0  0  0  0  0  0  0  0  0  0
++         0  0  0  0  0  0  0  0  0  0  0  0  0  0  0  0  0
++         0  0  0  0  0  0  0  0  0  0  0  0  0  0  0  0  0
++         0  0  0  0  0  0  0  0  0  0  0  0  0  0  0  0  0
++         0  0  0  0  0  0  0  0  0  0  0  0  0  0  0  0  0
%c cc cc ccc ccc cccc cccc cccc cccc ccccc ccccc ccccc ccccc
%c cc cc ccc ccc cccc cccc cccc cccc ccccc ccccc ccccc ccccc
%f  0.0000000  0.000000000  0.00000000000  0.000000000000000
%f  0.0000000  0.000000000  0.00000000000  0.000000000000000
%i    0    0    0    0      0      0      0      0         0
%i    0    0    0    0      0      0      0      0         0
/*      NGA, ST. LOUIS,MO.                                  
/*   EPHEMERIS COMPUTED FROM  3 DAYS OF DATA                
/* CCCCCCCCCCCCCCCCCCCCCCCCCCCCCCCCCCCCCCCCCCCCCCCCCCCCCCCCC
/* CCCCCCCCCCCCCCCCCCCCCCCCCCCCCCCCCCCCCCCCCCCCCCCCCCCCCCCCC
*  2011 10 11  6  0   .00000000                                                 
P  1 -15006.573487   2769.828584  21726.590427     16.390224                    
V  1  -7491.230463 -26582.084364  -1783.589458       .324045                    
P  2  14218.400771  19897.608951 -10874.605285    360.261518                    
V  2   1382.201604  13976.692393  26699.155063       .017982                    
P  3 -21335.032334 -11424.269452 -11723.436266    779.746532                    
V  3  14414.694859  -1120.287004 -25852.291339       .050382                    
P  4   5931.496612  25633.759058   1601.993064    256.995725                    
V  4  -4312.233924  -1217.873618  31382.020708       .113291                    
P  5  13471.696378   8028.093756 -21461.431485   -230.112849                    
V  5 -18751.214482  19752.982534  -4266.812193      -.051416                    
P  6 -17807.517408 -13996.452982 -13935.584703    -51.886478                    
V  6  18050.129206    945.470314 -23529.792242       .075016                    
P  7  -8081.624753  17465.479772 -18182.084121     31.147802                    
V  7  -7385.615008 -22008.902157 -18080.376207       .019884                    
P  8  -2682.289495  23799.455762 -10775.340862       .038727                    
V  8  -4372.662324 -13331.829652 -28793.634765       .001025                    
P  9  15213.926390   1907.691372  21137.115050    110.976592                    
V  9   7431.231606  27082.610859  -7622.764870       .024137                    
P 10  -3216.102373  20200.367459 -16956.111803    -15.846723                    
V 10 -16734.116387  13348.161002  19714.351874      -.010430                    
P 11 -19001.066732  -3374.408771  18018.645451   -193.695994                    
V 11 -10119.682452 -21655.946240 -14102.374228      -.033911                    
P 12  21379.069885  -8731.314331  12972.345987     27.772516                    
V 12 -10372.435275  12981.751104  26012.082100       .023536                    
P 13 -17703.857371   6883.885950 -18736.360097    247.231459                    
V 13 -21774.204938  -8657.654318  17438.828636      -.019099                    
P 14  -2599.499283 -15855.838941  21353.775485    176.274618                    
V 14  25482.777576   7691.201963   8742.343481       .017192                    
P 15  26192.094977   3859.642115   3138.640331   -103.010914                    
V 15   3156.772653   3866.534367 -31016.427799       .013524                    
P 16 -13827.863476  -6957.137884 -21605.841718   -202.689206                    
V 16  19646.197860 -19066.067258  -6143.790008      -.021228                    
P 17   2501.371886  16107.200309  21156.169248    171.241106                    
V 17 -25590.392644  -6841.842425   8057.947703      -.018540                    
P 18  16101.244153 -20497.403945   4274.058416    161.559134                    
V 18   6394.427677   -801.384340 -30698.312479       .018565                    
P 19 -25461.071697  -8176.702389   1004.720778   -193.019029                    
V 19   -375.857964  -2849.087605 -31441.012822      -.040163                    
P 20 -21248.894912  10560.837459  11717.587156     54.204004                    
V 20   7802.765068 -13420.749786  25990.462183       .005955                    
P 21   6041.923980 -20426.031635 -15045.398357   -177.130210                    
V 21   8300.446236  18687.435057 -22019.985489      -.024547                    
P 22   5062.350288 -21131.746828  15379.280170    144.051814                    
V 22  15637.101805 -11698.817702 -21583.960207      -.001818                    
P 23 -24192.710823   1569.642462 -11239.562420    268.900154                    
V 23 -13137.200345  -5733.859433  27059.839338      -.031467                    
P 25  19758.524289 -17418.119626   3262.301112     22.801722                    
V 25   -956.676006   4862.795652  31521.961799       .018161                    
P 26  21946.507942  13299.839527  -8187.998060   -186.576787                    
V 26  -9410.389803  -1692.795072 -29814.865522      -.130316                    
P 27  16603.571833   8472.392599  19712.348378    313.968857                    
V 27   6622.225227  22531.289473 -15413.439743       .039770                    
P 28  -8713.637739  21063.243185  13944.363213     74.589095                    
V 28 -13596.641843  10195.580322 -25089.109120       .031403                    
P 29  17797.956303  -7780.220721 -18033.125869    247.374432                    
V 29  21605.492672   8159.159942  17778.973128       .033729                    
P 30   8871.461515 -22937.110330 -10467.028864     71.296367                    
V 30   9867.078221  -8403.413639  27786.399968      -.058228                    
P 31  -7572.395674 -25293.132445  -1256.345358    153.741162                    
V 31   1823.558097  -2392.767617  32280.285923       .053837                    
P 32 -20036.427859    876.531761  17445.706463   -343.485453                    
V 32  15270.911330 -15744.310788  19045.129354      -.062933                    
EOF
